# From MPC194127
P/2012 B1 (PANSTARRS),e,7.6053,36.2097,161.8390,6.545973,0.0588495,0.41073585,281.0437,07/04.0/2026,2000,g  9.0,4.0
# From MPC194127
P/2012 F2 (PANSTARRS),e,14.6902,226.7761,33.3422,6.351927,0.0615667,0.54218339,299.2333,07/04.0/2026,2000,g 12.0,4.0
# From MPC194128
P/2012 G1 (PANSTARRS),e,12.1690,283.2253,266.0252,4.160919,0.1161235,0.33013307,244.2572,07/04.0/2026,2000,g 15.0,4.0
# From MPC194128
C/2012 K1 (PANSTARRS),e,142.6772,317.7936,203.2094,13047,0.0000007,0.99991820,0.0000,08/22.6198/2014,2000,g  5.6,3.2
# From MPC194128
P/2012 K3 (Gibbs),e,13.1787,125.8019,172.0991,3.634306,0.1422564,0.42184097,358.3216,07/04.0/2026,2000,g 15.0,4.0
# From MPC194128
C/2012 K8 (Lemmon),h,08/20.3079/2014,105.9522,312.7242,75.8643,1.000812,6.457508,2000,6.0,4.0
# From MPC194129
C/2012 LP26 (Palomar),h,08/12.1546/2015,25.3616,154.1125,145.2552,1.001107,6.565811,2000,6.5,4.0
# From MPC194129
P/2012 O1 (McNaught),e,7.4228,91.8928,238.3286,3.543072,0.1477863,0.59351305,36.0636,07/04.0/2026,2000,g 17.5,4.0
# From MPC194129
P/2012 O2 (McNaught),e,24.4474,120.6531,183.3924,3.630703,0.1424682,0.53129635,13.3406,07/04.0/2026,2000,g 17.0,4.0
# From MPC194129
C/2012 Q1 (Kowalski),e,45.1753,184.4450,139.4827,26.19561,0.0073513,0.63598126,38.7015,07/04.0/2026,2000,g  4.0,4.0
# From MPC194129
P/2012 T3 (PANSTARRS),e,9.5202,114.1400,196.8212,6.026469,0.0666208,0.60516612,345.2604,07/04.0/2026,2000,g 15.0,4.0
# From MPC194130
C/2012 X1 (LINEAR),e,44.2683,113.4780,131.9844,158.3162,0.0004948,0.98983355,0.0000,02/15.8946/2014,2000,g  4.8,3.6
# From MPC194130
C/2013 A1 (SidingSpring),h,10/27.1826/2014,128.6858,301.1847,2.5482,1.000112,1.392109,2000,8.2,2.4
# From MPC194131
C/2013 C2 (Tenagra),e,21.3690,247.5648,308.7456,15.87533,0.0155819,0.42623429,61.7045,07/04.0/2026,2000,g  4.0,4.0
# From MPEC 2013-Y32
P/2013 CU129 (PANSTARRS),e,11.8108,45.5867,213.0209,2.905017,0.1990586,0.71533608,229.0973,07/04.0/2026,2000,g 18.0,2.0
# From MPC194131
C/2013 E1 (McNaught),e,158.7085,133.8750,311.3138,6414,0.0000019,0.99878865,0.0000,06/09.1044/2013,2000,g  5.5,4.0
# From MPC194131
P/2013 G1 (Kowalski),e,5.4558,221.2600,51.2972,6.911851,0.0542391,0.51040921,250.3740,07/04.0/2026,2000,g 11.0,4.0
# From MPC194132
P/2013 J2 (McNaught),e,15.4891,289.2257,37.8559,6.234563,0.0633133,0.65564718,297.7252,07/04.0/2026,2000,g 13.0,4.0
# From MPC194133
C/2013 P3 (Palomar),h,11/24.9615/2014,93.8419,177.3203,177.3972,1.002038,8.685129,2000,5.5,4.0
# From MPC194133
C/2013 P4 (PANSTARRS),e,4.2602,256.3865,114.0074,14.78255,0.0173412,0.59365312,75.3978,07/04.0/2026,2000,g  7.5,4.0
# From MPC194134
P/2013 R3 (Catalina-PANSTARRS),e,0.8670,341.6496,11.3675,3.028135,0.1870429,0.27894572,156.1137,07/04.0/2026,2000,g 14.0,4.0
# From MPC194134
P/2013 R3-A,e,0.8659,341.5964,11.4535,3.027886,0.1870660,0.27887050,156.2040,07/04.0/2026,2000,g 14.3,4.0
# From MPC194134
P/2013 R3-B,e,0.8677,341.6639,11.4003,3.028132,0.1870431,0.27888808,156.0901,07/04.0/2026,2000,g 14.5,4.0
# From MPC194134
P/2013 T1 (PANSTARRS),e,24.2672,10.0347,346.1838,5.857607,0.0695222,0.62337366,327.5651,07/04.0/2026,2000,g 16.5,4.0
# From MPC194134
P/2013 T2 (Schwartz),e,9.4472,0.7758,345.5787,3.493296,0.1509562,0.50004606,3.4252,07/04.0/2026,2000,g 16.0,4.0
# From MPC194135
C/2013 US10 (Catalina),h,11/11.9026/2015,148.9344,186.1413,340.1939,1.000156,0.815106,2000,4.4,4.0
# From MPC194135
C/2013 V4 (Catalina),h,10/10.4801/2015,67.9552,55.5462,40.4840,1.000557,5.186697,2000,6.0,4.0
# From MPC194135
P/2013 W1 (PANSTARRS),e,4.7009,117.8447,1.2781,3.483267,0.1516086,0.59394211,321.3157,07/04.0/2026,2000,g 17.5,4.0
# From MPC194135
C/2013 W2 (PANSTARRS),e,4.8500,178.2715,303.9104,9.614915,0.0330587,0.54784443,139.9457,07/04.0/2026,2000,g 13.5,2.0
# From MPC194135
C/2013 X1 (PANSTARRS),h,04/24.3962/2016,163.0537,132.0356,165.4784,1.000908,1.305646,2000,10.5,2.0
# From MPC194136
P/2013 YG46 (Spacewatch),e,7.0390,36.3110,255.7994,3.240079,0.1689938,0.48000483,208.8646,07/04.0/2026,2000,g 10.0,4.0
# From MPC194136
P/2014 A2 (Hill),e,24.5644,106.6416,356.2668,5.916875,0.0684803,0.64663236,317.5839,07/04.0/2026,2000,g 15.0,4.0
# From MPC194136
C/2014 A4 (SONEAR),h,09/05.3848/2015,121.3436,29.6771,356.9343,1.000005,4.208180,2000,6.0,4.0
# From MPC194136
C/2014 B1 (Schwartz),h,09/10.3189/2017,28.3824,161.2827,345.7885,1.000833,9.539052,2000,4.0,4.0
# From MPC194136
P/2014 C1 (TOTAS),e,3.1907,39.4811,187.8493,4.045167,0.1211433,0.33855868,271.5160,07/04.0/2026,2000,g 15.5,4.0
# From MPC194137
C/2014 F3 (Sheppard-Trujillo),e,6.5207,325.9906,5.0642,14.35413,0.0181234,0.60067952,33.8040,07/04.0/2026,2000,g  6.0,4.0
# From MPC194137
P/2014 L2 (NEOWISE),e,5.1858,149.3012,182.6642,6.317006,0.0620779,0.64580633,271.6892,07/04.0/2026,2000,g 12.0,4.0
# From MPC194138
C/2014 M2 (Christensen),e,32.3390,245.3737,40.8525,1289,0.0000213,0.99462093,0.0000,07/13.2142/2014,2000,g  6.0,4.0
# From MPC194138
P/2014 O3 (PANSTARRS),e,7.7889,87.6234,204.4775,7.589939,0.0471353,0.38248157,211.3547,07/04.0/2026,2000,g 10.5,4.0
# From MPC194138
C/2014 OE4 (PANSTARRS),e,81.2815,240.4519,65.8739,22943,0.0000003,0.99972684,0.0000,12/05.3058/2016,2000,g 11.0,2.0
# From MPC191585
C/2014 OG392 (PANSTARRS),e,9.0317,145.8331,255.5809,12.25008,0.0229877,0.18430677,37.5858,07/04.0/2026,2000,g  6.0,4.0
# From MPC194139
C/2014 R3 (PANSTARRS),h,08/08.6606/2016,90.7590,333.9820,113.3647,1.000049,7.264843,2000,6.5,4.0
# From MPC194139
P/2014 U4 (PANSTARRS),e,6.4207,11.8859,347.8379,3.513615,0.1496487,0.46340502,294.6135,07/04.0/2026,2000,g 18.0,4.0
# From MPEC 2026-L50
C/2014 UN271 (Bernardinelli-Bernstein),h,01/16.4719/2031,95.4462,190.0000,326.0873,1.004164,10.959821,2000,2.5,3.2
# From MPC194139
P/2014 V1 (PANSTARRS),e,22.4894,166.1895,177.9767,5.363321,0.0793512,0.52426070,331.4096,07/04.0/2026,2000,g 14.0,4.0
# From MPC194140
P/2014 W4 (PANSTARRS),e,15.2787,33.3050,67.8159,6.578008,0.0584201,0.35521503,223.5081,07/04.0/2026,2000,g 11.0,4.0
# From MPC194141
P/2015 B1 (PANSTARRS),e,18.1012,352.8352,188.6563,9.469502,0.0338231,0.36756009,133.6273,07/04.0/2026,2000,g  8.5,4.0
# From MPC194142
C/2015 D2 (PANSTARRS),e,31.9084,162.6818,292.4216,12.80318,0.0215143,0.56179906,100.1414,07/04.0/2026,2000,g  8.0,4.0
# From MPC194142
C/2015 D3 (PANSTARRS),e,128.5736,156.8765,2.6606,16560,0.0000005,0.99950844,0.0000,04/25.2149/2016,2000,g  5.5,4.0
# From MPC194142
P/2015 D5 (Kowalski),e,20.5415,74.0703,39.7022,8.944120,0.0368466,0.49199250,164.4772,07/04.0/2026,2000,g  9.0,4.0
# From MPC194142
P/2015 D6 (Lemmon-PANSTARRS),e,20.3877,45.1493,126.1101,7.116228,0.0519194,0.36326768,208.5653,07/04.0/2026,2000,g 10.5,4.0
# From MPC194142
C/2015 ER61 (PANSTARRS),e,6.3138,235.0012,68.7116,459.3759,0.0001001,0.99768680,0.0000,05/04.7795/2017,2000,g 11.0,2.0
# From MPC194144
P/2015 M2 (PANSTARRS),e,3.9675,86.5674,225.5266,7.255438,0.0504323,0.17789356,200.2029,07/04.0/2026,2000,g  8.5,4.0
# From MPEC 2021-P47
C/2015 O1 (PANSTARRS),h,02/17.3678/2018,27.1032,299.7011,89.8728,1.001664,3.750555,2000,6.5,4.0
# From MPC194144
P/2015 PD229 (Cameron-ISON),e,2.0188,342.7079,352.6096,7.211674,0.0508920,0.32444911,202.9939,07/04.0/2026,2000,g 11.5,2.0
# From MPC194144
P/2015 R2 (PANSTARRS),e,15.5700,168.5599,149.7842,4.494658,0.1034330,0.45243060,56.6056,07/04.0/2026,2000,g 14.5,4.0
# From MPC194145
C/2015 T5 (Sheppard-Tholen),e,11.0172,311.1716,62.2834,28.40458,0.0065106,0.66942759,24.8014,07/04.0/2026,2000,g  7.5,4.0
# From MPC194145
P/2015 TP200 (LINEAR),e,8.7720,6.8537,82.6963,7.264479,0.0503382,0.53708289,177.6069,07/04.0/2026,2000,g 11.0,4.0
# From MPC194145
C/2015 V1 (PANSTARRS),e,139.1704,197.2930,179.9618,34600,0.0000002,0.99987608,0.0000,12/19.3493/2017,2000,g  6.5,4.0
# From MPEC 2026-L50
C/2015 V2 (Johnson),h,06/09.4137/2017,49.7732,70.0643,164.6823,1.000827,1.631559,2000,5.0,4.0
# From MPC194145
C/2015 V4 (PANSTARRS),e,60.7558,179.7907,306.8025,18.44659,0.0124403,0.70547821,44.7098,07/04.0/2026,2000,g  8.5,4.0
# From MPC194146
C/2015 XY1 (Lemmon),h,04/27.4592/2018,148.8561,281.5094,196.3649,1.000497,7.958906,2000,5.5,4.0
# From MPC194146
P/2015 X3 (PANSTARRS),e,24.4207,77.2465,307.0092,4.994072,0.0883124,0.43946655,350.1275,07/04.0/2026,2000,g 15.0,4.0
# From MPC194146
C/2015 X5 (PANSTARRS),h,12/27.9842/2017,124.3816,122.1937,27.6959,1.000035,6.820624,2000,7.5,4.0
# From MPC194146
P/2015 X6 (PANSTARRS),e,4.5666,106.9216,329.4621,2.751384,0.2159620,0.17398644,90.5440,07/04.0/2026,2000,g 16.0,4.0
# From MPC194147
C/2016 A1 (PANSTARRS),e,121.2878,128.0178,10.1851,7755,0.0000014,0.99931144,0.0000,11/19.5688/2017,2000,g  6.0,4.0
# From MPC194147
P/2016 A3 (PANSTARRS),e,8.5282,187.0929,340.8403,7.864742,0.0446866,0.38767960,149.8226,07/04.0/2026,2000,g 10.0,4.0
# From MPC194147
P/2016 A7 (PANSTARRS),e,16.1076,219.7621,353.2528,5.082898,0.0860076,0.56846764,331.7791,07/04.0/2026,2000,g 16.0,4.0
# From MPC194147
C/2016 C1 (PANSTARRS),h,02/18.7240/2016,56.1997,181.6981,328.5630,1.001786,8.432115,2000,5.5,4.0
# From MPC194147
C/2016 E1 (PANSTARRS),h,05/26.9610/2017,131.8842,233.1289,47.2300,1.001272,8.163463,2000,6.5,4.0
# From MPC194148
P/2016 G1 (PANSTARRS),e,10.9698,204.0057,111.1067,2.583483,0.2373535,0.20978643,98.2356,07/04.0/2026,2000,g 14.0,4.0
# From MPC194148
C/2016 M1 (PANSTARRS),e,90.7540,92.2948,209.8253,1952,0.0000114,0.99886716,0.0000,08/07.3647/2018,2000,g  5.0,4.0
# From MPC194148
C/2016 N6 (PANSTARRS),e,105.9435,298.7225,162.7031,1041,0.0000293,0.99742813,0.0000,07/16.0278/2018,2000,g  7.0,4.0
# From MPC194148
P/2016 P1 (PANSTARRS),e,25.8425,318.7670,268.6791,3.241958,0.1688469,0.28914733,308.6305,07/04.0/2026,2000,g 15.0,4.0
# From MPC191585
P/2016 P5 (COIAS),e,7.0400,185.3572,33.6116,4.698905,0.0967629,0.05761189,110.3936,07/04.0/2026,2000,g 13.2,4.0
# From MPC194148
C/2016 Q2 (PANSTARRS),h,05/10.4970/2021,109.3052,322.3548,84.5083,1.001213,7.080790,2000,6.0,4.0
# From MPC194148
C/2016 Q4 (Kowalski),e,7.2373,271.2820,100.0175,17.03810,0.0140143,0.58161081,43.1244,07/04.0/2026,2000,g  7.0,4.0
# From MPC194149
